CZ-2C R/B               
1 54039U 22132E   25351.56167712  .00025999  00000+0  38286-3 0  9995
2 54039  97.2939 347.8532 0022367  41.0861 319.2073 15.55110367177581
GSLV R/B                
1 54149U 22138AN  25351.60450472  .00001617  00000+0  14027-3 0  9994
2 54149  87.3824 193.8450 0024219  89.7304 270.6703 14.96155919171651
XRISM                   
1 57800U 23137A   25351.59247305  .00004021  00000+0  23322-3 0  9998
2 57800  31.0022  94.2108 0007739 294.0111  65.9717 15.10382851125364
ACS3                    
1 59588U 24077B   25351.59207166  .00020730  00000+0  17679-1 0  9999
2 59588  97.2640 306.1140 0076609 326.6049  33.0293 13.85722218 82816
SZ-21 MODULE            
1 66515U 25246C   25351.26873890  .00022864  00000+0  25031-3 0  9996
2 66515  41.4771 348.4140 0005990 284.3104  75.7070 15.62718015  5151
