CCSDS_OMM_VERS = 2.0
CREATION_DATE  = 
ORIGINATOR     = 

OBJECT_NAME    = CZ-2C R/B
OBJECT_ID      = 2022-132E
CENTER_NAME    = EARTH
REF_FRAME      = TEME
TIME_SYSTEM    = UTC
MEAN_ELEMENT_THEORY = SGP/SGP4

EPOCH          = 2025-12-17T13:28:48.903168
MEAN_MOTION    = 15.55110367
ECCENTRICITY   = .00223674
INCLINATION    = 97.2939
RA_OF_ASC_NODE = 347.8532
ARG_OF_PERICENTER = 41.0861
MEAN_ANOMALY   = 319.2073

EPHEMERIS_TYPE = 0
CLASSIFICATION_TYPE = U
NORAD_CAT_ID   = 54039
ELEMENT_SET_NO = 999
REV_AT_EPOCH   = 17758
BSTAR          = .38286356E-3
MEAN_MOTION_DOT = .25999E-3
MEAN_MOTION_DDOT = 0

CCSDS_OMM_VERS = 2.0
CREATION_DATE  = 
ORIGINATOR     = 

OBJECT_NAME    = GSLV R/B
OBJECT_ID      = 2022-138AN
CENTER_NAME    = EARTH
REF_FRAME      = TEME
TIME_SYSTEM    = UTC
MEAN_ELEMENT_THEORY = SGP/SGP4

EPOCH          = 2025-12-17T14:30:29.207808
MEAN_MOTION    = 14.96155919
ECCENTRICITY   = .00242199
INCLINATION    = 87.3824
RA_OF_ASC_NODE = 193.8450
ARG_OF_PERICENTER = 89.7304
MEAN_ANOMALY   = 270.6703

EPHEMERIS_TYPE = 0
CLASSIFICATION_TYPE = U
NORAD_CAT_ID   = 54149
ELEMENT_SET_NO = 999
REV_AT_EPOCH   = 17165
BSTAR          = .14027276E-3
MEAN_MOTION_DOT = .1617E-4
MEAN_MOTION_DDOT = 0

CCSDS_OMM_VERS = 2.0
CREATION_DATE  = 
ORIGINATOR     = 

OBJECT_NAME    = XRISM
OBJECT_ID      = 2023-137A
CENTER_NAME    = EARTH
REF_FRAME      = TEME
TIME_SYSTEM    = UTC
MEAN_ELEMENT_THEORY = SGP/SGP4

EPOCH          = 2025-12-17T14:13:09.671520
MEAN_MOTION    = 15.10382851
ECCENTRICITY   = .00077399
INCLINATION    = 31.0022
RA_OF_ASC_NODE = 94.2108
ARG_OF_PERICENTER = 294.0111
MEAN_ANOMALY   = 65.9717

EPHEMERIS_TYPE = 0
CLASSIFICATION_TYPE = U
NORAD_CAT_ID   = 57800
ELEMENT_SET_NO = 999
REV_AT_EPOCH   = 12536
BSTAR          = .23322241E-3
MEAN_MOTION_DOT = .4021E-4
MEAN_MOTION_DDOT = 0

CCSDS_OMM_VERS = 2.0
CREATION_DATE  = 
ORIGINATOR     = 

OBJECT_NAME    = ACS3
OBJECT_ID      = 2024-077B
CENTER_NAME    = EARTH
REF_FRAME      = TEME
TIME_SYSTEM    = UTC
MEAN_ELEMENT_THEORY = SGP/SGP4

EPOCH          = 2025-12-17T14:12:34.991424
MEAN_MOTION    = 13.85722218
ECCENTRICITY   = .00766097
INCLINATION    = 97.2640
RA_OF_ASC_NODE = 306.1140
ARG_OF_PERICENTER = 326.6049
MEAN_ANOMALY   = 33.0293

EPHEMERIS_TYPE = 0
CLASSIFICATION_TYPE = U
NORAD_CAT_ID   = 59588
ELEMENT_SET_NO = 999
REV_AT_EPOCH   = 8281
BSTAR          = .17678628E-1
MEAN_MOTION_DOT = .2073E-3
MEAN_MOTION_DDOT = 0

CCSDS_OMM_VERS = 2.0
CREATION_DATE  = 
ORIGINATOR     = 

OBJECT_NAME    = SZ-21 MODULE
OBJECT_ID      = 2025-246C
CENTER_NAME    = EARTH
REF_FRAME      = TEME
TIME_SYSTEM    = UTC
MEAN_ELEMENT_THEORY = SGP/SGP4

EPOCH          = 2025-12-17T06:26:59.040960
MEAN_MOTION    = 15.62718015
ECCENTRICITY   = .00059901
INCLINATION    = 41.4771
RA_OF_ASC_NODE = 348.4140
ARG_OF_PERICENTER = 284.3104
MEAN_ANOMALY   = 75.7070

EPHEMERIS_TYPE = 0
CLASSIFICATION_TYPE = U
NORAD_CAT_ID   = 66515
ELEMENT_SET_NO = 999
REV_AT_EPOCH   = 515
BSTAR          = .25031156E-3
MEAN_MOTION_DOT = .22864E-3
MEAN_MOTION_DDOT = 0

